{
    "links": {
        "self": "http://www.neowsapp.com/rest/v1/neo/3669246?api_key=iIulBulltgU6a56xZRHN4H3l9WmuAYTsLGpBGhQ2"
    },
    "id": "3669246",
    "neo_reference_id": "3669246",
    "name": "(2014 HA124)",
    "designation": "2014 HA124",
    "nasa_jpl_url": "http://ssd.jpl.nasa.gov/sbdb.cgi?sstr=3669246",
    "absolute_magnitude_h": 26.5,
    "estimated_diameter": {
        "kilometers": {
            "estimated_diameter_min": 0.0133215567,
            "estimated_diameter_max": 0.0297879063
        },
        "meters": {
            "estimated_diameter_min": 13.3215566698,
            "estimated_diameter_max": 29.7879062798
        },
        "miles": {
            "estimated_diameter_min": 0.008277629,
            "estimated_diameter_max": 0.0185093411
        },
        "feet": {
            "estimated_diameter_min": 43.7058959846,
            "estimated_diameter_max": 97.7293544391
        }
    },
    "is_potentially_hazardous_asteroid": false,
    "close_approach_data": [
        {
            "close_approach_date": "1968-04-21",
            "close_approach_date_full": "1968-Apr-21 19:35",
            "epoch_date_close_approach": -53497500000,
            "relative_velocity": {
                "kilometers_per_second": "10.2940989305",
                "kilometers_per_hour": "37058.7561498238",
                "miles_per_hour": "23026.8698976502"
            },
            "miss_distance": {
                "astronomical": "0.1277223852",
                "lunar": "49.6840078428",
                "kilometers": "19106996.777239524",
                "miles": "11872537.2605084712"
            },
            "orbiting_body": "Earth"
        },
        {
            "close_approach_date": "2014-05-10",
            "close_approach_date_full": "2014-May-10 04:07",
            "epoch_date_close_approach": 1399694820000,
            "relative_velocity": {
                "kilometers_per_second": "7.0443569821",
                "kilometers_per_hour": "25359.685135638",
                "miles_per_hour": "15757.522133308"
            },
            "miss_distance": {
                "astronomical": "0.0517886971",
                "lunar": "20.1458031719",
                "kilometers": "7747478.776235177",
                "miles": "4814060.0806203626"
            },
            "orbiting_body": "Earth"
        }
    ],
    "orbital_data": {
        "orbit_id": "9",
        "orbit_determination_date": "2017-04-06 08:41:25",
        "first_observation_date": "2014-04-23",
        "last_observation_date": "2014-04-28",
        "data_arc_in_days": 5,
        "observations_used": 17,
        "orbit_uncertainty": "8",
        "minimum_orbit_intersection": ".0410181",
        "jupiter_tisserand_invariant": "3.660",
        "epoch_osculation": "2456771.5",
        "eccentricity": ".4857026373243077",
        "semi_major_axis": "2.023970827389245",
        "inclination": "2.604536407246408",
        "ascending_node_longitude": "202.4395221416933",
        "orbital_period": "1051.731301664771",
        "perihelion_distance": "1.040922858658828",
        "perihelion_argument": "41.8339452255417",
        "aphelion_distance": "3.007018796119663",
        "perihelion_time": "2456799.902807992772",
        "mean_anomaly": "350.2779247311429",
        "mean_motion": ".3422927504678819",
        "equinox": "J2000",
        "orbit_class": {
            "orbit_class_type": "AMO",
            "orbit_class_description": "Near-Earth asteroid orbits similar to that of 1221 Amor",
            "orbit_class_range": "1.017 AU < q (perihelion) < 1.3 AU"
        }
    },
    "is_sentry_object": false
}